[{"OBJECT_NAME":"ONEWEB-0661","OBJECT_ID":"2023-029AB","EPOCH":"2026-03-09T16:12:51.430464","MEAN_MOTION":13.14502994,"ECCENTRICITY":0.00013961,"INCLINATION":87.8978,"RA_OF_ASC_NODE":309.6081,"ARG_OF_PERICENTER":90.1887,"MEAN_ANOMALY":269.9403,"EPHEMERIS_TYPE":0,"CLASSIFICATION_TYPE":"U","NORAD_CAT_ID":55821,"ELEMENT_SET_NO":999,"REV_AT_EPOCH":14631,"BSTAR":-7.5684834e-5,"MEAN_MOTION_DOT":-1.5e-7,"MEAN_MOTION_DDOT":0},{"OBJECT_NAME":"SL-14 DEB","OBJECT_ID":"1991-056AS","EPOCH":"2026-03-06T05:18:41.193504","MEAN_MOTION":13.23680313,"ECCENTRICITY":0.00486112,"INCLINATION":82.6919,"RA_OF_ASC_NODE":251.6281,"ARG_OF_PERICENTER":89.2287,"MEAN_ANOMALY":271.4409,"EPHEMERIS_TYPE":0,"CLASSIFICATION_TYPE":"U","NORAD_CAT_ID":45304,"ELEMENT_SET_NO":999,"REV_AT_EPOCH":28890,"BSTAR":0.0066501942,"MEAN_MOTION_DOT":2.855e-5,"MEAN_MOTION_DDOT":0}]
